format  = 'OEF2.0'       ! file format
rectype = 'ML'           ! record type (1L/ML)
refsys  = ECLM J2000     ! default reference system
END_OF_HEADER
65803
! Keplerian elements: a, e, i, long. node, arg. peric., mean anomaly
 KEP   1.6425644045101613E+00  3.8322842444107480E-01   3.4140729469739  72.9844872036986 319.5898856206961  1.6722107816168415E+02
 MJD     61000.000000000 TDT
 MAG  18.048  0.150
! Non-gravitational parameters: model used, number of model parameters, dimension
 LSP   0  0    6
! PERIHELION   1.0130870357267396E+00
! APHELION   2.2720417732935823E+00
! ANODE   9.9041317777057075E-02
! DNODE   9.6334267065879020E-01
! MOID   3.9691467292184458E-02
! PERIOD   7.6892155858284332E+02
! PHA T
! VINFTY     4.9697940509658
! U_PAR 0.0
! ORB_TYPE Apollo
! RMS    1.47985E-10   1.71949E-09   2.52298E-07   5.69534E-06   5.96690E-06   2.71997E-07
 COV   2.189946603408111E-20  2.152868698727335E-19  2.433140126087848E-17
 COV   6.734953915951997E-16 -7.362768721035497E-16  4.478770399515016E-18
 COV   2.956644259088151E-18  2.842394444044555E-16  7.047467595486039E-15
 COV  -8.160364317743527E-15  2.784067990250159E-16  6.365403611766741E-14
 COV   1.445226119814725E-13 -2.881154376828095E-13  3.314150360870042E-14
 COV   3.243688296656049E-11 -3.375118044844252E-11 -2.760778347479639E-14
 COV   3.560393016413194E-11 -1.451536856355543E-13  7.398250478196306E-14
 COR   1.000000000000000E+00  8.460601572993510E-01  6.516844899972357E-01
 COR   7.990948074219694E-01 -8.338259856819621E-01  1.112698547059477E-01
 COR   1.000000000000000E+00  6.551969025204126E-01  7.196378441437478E-01
 COR  -7.953550465925538E-01  5.952724520015541E-01  1.000000000000000E+00
 COR   1.005780640590953E-01 -1.913835410186529E-01  4.829417145771454E-01
 COR   9.999999999999999E-01 -9.931627896928898E-01 -1.782163184172940E-02
 COR   1.000000000000000E+00 -8.943645606666691E-02  9.999999999999999E-01
